TEVEL2-9                
1 63237U 25052AD  26068.70229538  .00018694  00000+0  67240-3 0  9992
2 63237  97.4057 324.3929 0007990 124.2475 235.9522 15.28633834 54816
STARLINK-36448          
1 67354U 26003W   26068.49668233  .00033470  00000+0  12194-2 0  9994
2 67354  42.9951 228.2137 0001167 207.6464 152.4326 15.27602724  8799
